<?xml version="1.0" encoding="UTF-8"?>
<kml xmlns="http://www.opengis.net/kml/2.2">
  <Document>
    <name>Model Project Sites</name>

    <Placemark>
      <name>Float 2904019</name>
      <description>
        <![CDATA[
          <p>This float was deployed in Qeqertarsuup Tunua in 2020 to monitor oceanographic conditions near Sermeq Kujalleq.</p>
          <p><a href="https://data-argo.ifremer.fr/dac/aoml/2904019/" target="_blank">Argo DAC</a></p>
          <p><a href="https://fleetmonitoring.euro-argo.eu/float/2904019" target="_blank">EuroArgo</a></p>
        ]]>
      </description>
      <Point>
        <coordinates>-52.85380172729492,68.99510192871094,0</coordinates>
      </Point>
    </Placemark>

    <Placemark>
      <name>Float 4903903</name>
      <description>
        <![CDATA[
          <p>This float was deployed in Melville Bay in 2020 to monitor oceanographic conditions near glaciers in northwest Greenland.</p>
          <p><a href="https://data-argo.ifremer.fr/dac/aoml/4903903/" target="_blank">Argo DAC</a></p>
          <p><a href="https://fleetmonitoring.euro-argo.eu/float/4903903" target="_blank">EuroArgo</a></p>
        ]]>
      </description>
      <Point>
        <coordinates>-61.69139099121094,75.4834213256836,0</coordinates>
      </Point>
    </Placemark>

    <Placemark>
      <name>Float 2904018</name>
      <description>
        <![CDATA[
          <p>This float was deployed in 2020 in the Upernavik trough to monitor oceanographic conditions near glaciers in west Greenland.</p>
          <p><a href="https://data-argo.ifremer.fr/dac/aoml/2904018/" target="_blank">Argo DAC</a></p>
          <p><a href="https://fleetmonitoring.euro-argo.eu/float/2904018" target="_blank">EuroArgo</a></p>
        ]]>
      </description>
      <Point>
        <coordinates>-58.170799255371094,73.33439636230469,0</coordinates>
      </Point>
    </Placemark>

    <Placemark>
      <name>Float 7902322</name>
      <description>
        <![CDATA[
          <p>This float was deployed in 2021 in Ummannaaq to monitor oceanographic conditions near glaciers in west Greenland.</p>
          <p><a href="https://data-argo.ifremer.fr/dac/aoml/7902322/" target="_blank">Argo DAC</a></p>
          <p><a href="https://fleetmonitoring.euro-argo.eu/float/7902322" target="_blank">EuroArgo</a></p>
        ]]>
      </description>
      <Point>
        <coordinates>-53.388999938964844,70.88980102539062,0</coordinates>
      </Point>
    </Placemark>

    <Placemark>
      <name>Float 7902321</name>
      <description>
        <![CDATA[
          <p>This float was deployed in Melville Bay in 2021 to monitor oceanographic conditions near glaciers in west Greenland.</p>
          <p><a href="https://data-argo.ifremer.fr/dac/aoml/7902321/" target="_blank">Argo DAC</a></p>
          <p><a href="https://fleetmonitoring.euro-argo.eu/float/7902321" target="_blank">EuroArgo</a></p>
        ]]>
      </description>
      <Point>
        <coordinates>-61.63529968261719,75.4636001586914,0</coordinates>
      </Point>
    </Placemark>

    <Placemark>
      <name>Float 1902655</name>
      <description>
        <![CDATA[
          <p>This float was deployed in 2023 in the Upernavik trough to monitor oceanographic conditions near glaciers in west Greenland.</p>
          <p><a href="https://data-argo.ifremer.fr/dac/aoml/1902655/" target="_blank">Argo DAC</a></p>
          <p><a href="https://fleetmonitoring.euro-argo.eu/float/1902655" target="_blank">EuroArgo</a></p>
        ]]>
      </description>
      <Point>
        <coordinates>-57.916500091552734,73.26920318603516,0</coordinates>
      </Point>
    </Placemark>

    <Placemark>
      <name>Float 6990591</name>
      <description>
        <![CDATA[
          <p>This float was deployed in Disko Bay in 2023 to monitor oceanographic conditions near Ilullisat.</p>
          <p><a href="https://data-argo.ifremer.fr/dac/aoml/6990591/" target="_blank">Argo DAC</a></p>
          <p><a href="https://fleetmonitoring.euro-argo.eu/float/6990591" target="_blank">EuroArgo</a></p>
        ]]>
      </description>
      <Point>
        <coordinates>-51.96540069580078,69.1155014038086,0</coordinates>
      </Point>
    </Placemark>

    <Placemark>
      <name>Float 2903449</name>
      <description>
        <![CDATA[
          <p>This float was deployed in Ummannaq in 2025 to monitor oceanographic conditions near glaciers in west Greenland.</p>
          <p><a href="https://data-argo.ifremer.fr/dac/aoml/2903449/" target="_blank">Argo DAC</a></p>
          <p><a href="https://fleetmonitoring.euro-argo.eu/float/2903449" target="_blank">EuroArgo</a></p>
        ]]>
      </description>
      <Point>
        <coordinates>-53.76771,70.87213,0</coordinates>
      </Point>
    </Placemark>

    <Placemark>
      <name>Float 6999993</name>
      <description>
        <![CDATA[
          <p>This float was deployed in 2025 in Melville Bay to monitor oceanographic conditions near glaciers in west Greenland.</p>
          <p><a href="https://data-argo.ifremer.fr/dac/aoml/6999993/" target="_blank">Argo DAC</a></p>
          <p><a href="https://fleetmonitoring.euro-argo.eu/float/6999993" target="_blank">EuroArgo</a></p>
        ]]>
      </description>
      <Point>
        <coordinates>-61.11756,75.26851,0</coordinates>
      </Point>
    </Placemark>

  </Document>
</kml>
